ONEWEB-0694             
1 56722U 23068N   23286.88264110  .00003828  00000+0  52241-3 0  9999
2 56722  86.7204  80.4666 0016837  74.2298 286.0777 14.78298158 21775
ONEWEB-0696             
1 56723U 23068P   23286.88543770  .00000026  00000+0  28028-4 0  9996
2 56723  88.0997  93.5138 0003365  65.7525 294.3965 13.28959770 20834
ONEWEB-0703             
1 56724U 23068Q   23286.84472110  .00000181  00000+0  44769-3 0  9993
2 56724  87.8504  93.8820 0002974  73.2588 286.8868 13.15524193 20757
ONEWEB-0721             
1 56725U 23068R   23286.88798316  .00003689  00000+0  44705-3 0  9993
2 56725  86.6728  79.3397 0012954  72.6955 287.5685 14.83310851 21836
